      2.10          N: GNSS NAV DATA                        RINEX VERSION / TYPE
fic2rin                                 04/28/2019 00:19:47 PGM / RUN BY / DATE
                                                            END OF HEADER
 9 19  4 27 16  0  0.0 4.215184599161e-04-6.707523425575e-12 0.000000000000e+00
    3.300000000000e+01 1.503125000000e+01 4.760912596834e-09 5.034941699017e-01
    6.798654794693e-07 1.280017197132e-03 8.203089237213e-06 5.153687644958e+03
    5.760000000000e+05 5.587935447693e-09-2.809254271116e-01 2.235174179077e-08
    9.527790062928e-01 2.129062500000e+02 1.761971530787e+00-8.092837099149e-09
    3.107272287506e-10 1.000000000000e+00 2.050000000000e+03 0.000000000000e+00
    2.400000000000e+00 0.000000000000e+00 1.396983861923e-09 3.300000000000e+01
    5.688000000000e+05 4.000000000000e+00
15 19  4 27 16  0  0.0-3.161234781146e-04 2.046363078989e-12 0.000000000000e+00
    8.900000000000e+01 1.400000000000e+01 5.315221400306e-09-6.750769611737e-01
    9.927898645401e-07 1.127436722163e-02 8.316710591316e-06 5.153675449371e+03
    5.760000000000e+05 8.940696716309e-08-3.601532959561e-01 1.601874828339e-07
    9.282407893890e-01 2.009687500000e+02 7.719842330420e-01-8.477138821144e-09
    2.585821995580e-10 1.000000000000e+00 2.050000000000e+03 0.000000000000e+00
    3.400000000000e+00 0.000000000000e+00-1.117587089539e-08 8.900000000000e+01
    5.688000000000e+05 4.000000000000e+00
11 19  4 27 16  0  0.0-6.182291544974e-04 7.617018127348e-12 0.000000000000e+00
    8.200000000000e+01-1.003125000000e+01 5.549516873939e-09-2.681586040857e+00
   -3.501772880554e-07 1.656751113478e-02 3.296881914139e-06 5.153701623917e+03
    5.760000000000e+05 1.154839992523e-07-2.804661104798e+00 1.303851604462e-07
    9.094050125290e-01 2.870000000000e+02 1.880022277194e+00-8.482496187157e-09
    3.214419607765e-11 1.000000000000e+00 2.050000000000e+03 0.000000000000e+00
    2.400000000000e+00 0.000000000000e+00-1.257285475731e-08 8.200000000000e+01
    5.688000000000e+05 4.000000000000e+00
10 19  4 27 16  0  0.0 6.184726953506e-05-1.011812855722e-11 0.000000000000e+00
    8.100000000000e+01-5.090625000000e+01 4.349824044774e-09 2.230009676420e+00
   -2.596527338028e-06 4.517851280980e-03 8.799135684967e-06 5.153664987564e+03
    5.760000000000e+05-8.568167686462e-08-1.316559366245e+00-2.235174179077e-08
    9.624557588084e-01 2.096562500000e+02-2.696358454495e+00-7.905686446430e-09
    6.500270762369e-11 1.000000000000e+00 2.050000000000e+03 0.000000000000e+00
    2.400000000000e+00 0.000000000000e+00 1.862645149231e-09 8.100000000000e+01
    5.688000000000e+05 4.000000000000e+00
32 19  4 27 16  0  0.0-1.131747849286e-04 1.739408617141e-11 0.000000000000e+00
    8.000000000000e+00 2.500000000000e+01 4.711267671781e-09 8.414585768930e-01
    1.152977347374e-06 2.969038556330e-03 8.324161171913e-06 5.153581207275e+03
    5.760000000000e+05-3.725290298462e-08-2.743650075581e-01 4.842877388000e-08
    9.570507109922e-01 2.170937500000e+02-2.524730037734e+00-8.067836057755e-09
    2.296524230881e-10 1.000000000000e+00 2.050000000000e+03 0.000000000000e+00
    2.400000000000e+00 0.000000000000e+00 4.656612873077e-10 8.000000000000e+00
    5.688000000000e+05 4.000000000000e+00
16 19  4 27 16  0  0.0-3.579491749406e-05-2.842170943040e-12 0.000000000000e+00
    2.800000000000e+01 3.400000000000e+01 4.101599419508e-09 1.064988546099e+00
    2.091750502586e-06 1.082766440231e-02 7.953494787216e-06 5.153564010620e+03
    5.760000000000e+05-2.235174179077e-08 1.913649554385e+00 1.247972249985e-07
    9.832604112800e-01 2.391562500000e+02 5.701828090541e-01-7.914615389785e-09
   -3.564434187277e-10 1.000000000000e+00 2.050000000000e+03 0.000000000000e+00
    2.400000000000e+00 0.000000000000e+00-1.071020960808e-08 2.800000000000e+01
    5.688000000000e+05 4.000000000000e+00
30 19  4 27 16  0  0.0-9.419769048691e-05-6.934897101019e-12 0.000000000000e+00
    2.900000000000e+01 2.265625000000e+01 5.260933424708e-09-2.568681127811e+00
    1.139938831329e-06 3.922802978195e-03 6.742775440216e-06 5.153594583511e+03
    5.760000000000e+05-4.097819328308e-08 8.234859216997e-01-6.519258022308e-08
    9.413275439677e-01 2.440625000000e+02-2.992408862892e+00-8.307846055135e-09
   -1.250052069686e-10 1.000000000000e+00 2.050000000000e+03 0.000000000000e+00
    2.400000000000e+00 0.000000000000e+00 3.725290298462e-09 2.900000000000e+01
    5.688000000000e+05 4.000000000000e+00
25 19  4 27 16  0  0.0-7.503111846745e-04-4.206412995700e-12 0.000000000000e+00
    3.700000000000e+01 2.187500000000e+01 4.245891144123e-09 2.607380179599e+00
    9.816139936447e-07 8.441854617558e-03 7.918104529381e-06 5.153725431442e+03
    5.760000000000e+05-4.470348358154e-08 1.830750851036e+00-1.192092895508e-07
    9.703411096192e-01 2.296562500000e+02 8.886007301757e-01-7.785681447740e-09
   -2.475103097979e-10 1.000000000000e+00 2.050000000000e+03 0.000000000000e+00
    2.400000000000e+00 0.000000000000e+00 6.053596735001e-09 3.700000000000e+01
    5.688000000000e+05 4.000000000000e+00
23 19  4 27 16  0  0.0-1.885290257633e-04 1.477928890381e-12 0.000000000000e+00
    4.000000000000e+01 2.171875000000e+01 4.991993650859e-09-1.202279817837e+00
    1.344829797745e-06 1.314492244273e-02 7.905066013336e-06 5.153592901230e+03
    5.760000000000e+05 3.147870302200e-07-2.857448249332e-01 1.713633537292e-07
    9.435884604526e-01 2.125937500000e+02-2.269422036823e+00-8.171054642938e-09
    3.271564845236e-10 1.000000000000e+00 2.050000000000e+03 0.000000000000e+00
    2.400000000000e+00 0.000000000000e+00-2.048909664154e-08 4.000000000000e+01
    5.688000000000e+05 4.000000000000e+00
21 19  4 27 16  0  0.0-2.039661630988e-04 7.617018127348e-12 0.000000000000e+00
    3.300000000000e+01-3.631250000000e+01 4.635907389865e-09 2.489152099725e+00
   -1.922249794006e-06 2.467688312754e-02 3.905966877937e-06 5.153754287720e+03
    5.760000000000e+05 2.905726432800e-07-2.419353134352e+00-7.636845111847e-08
    9.481517700756e-01 2.916875000000e+02-1.448920871770e+00-7.873185092618e-09
   -1.278624688422e-10 1.000000000000e+00 2.050000000000e+03 0.000000000000e+00
    2.400000000000e+00 0.000000000000e+00-1.024454832077e-08 3.300000000000e+01
    5.688000000000e+05 4.000000000000e+00
19 19  4 27 16  0  0.0-3.257263451815e-04 4.433786671143e-12 0.000000000000e+00
    3.100000000000e+01 3.412500000000e+01 4.040525446960e-09 2.944047788710e+00
    1.773238182068e-06 9.558380465023e-03 5.710870027542e-06 5.153637109756e+03
    5.760000000000e+05 1.359730958939e-07 2.974476006385e+00-1.378357410431e-07
    9.821211374932e-01 2.775000000000e+02 1.383926519969e+00-7.844969631617e-09
    2.607251459631e-11 1.000000000000e+00 2.050000000000e+03 0.000000000000e+00
    2.400000000000e+00 0.000000000000e+00-1.536682248116e-08 3.100000000000e+01
    5.688000000000e+05 4.000000000000e+00
31 19  4 27 16  0  0.0 4.212558269501e-05-2.614797267597e-12 0.000000000000e+00
    2.700000000000e+01 2.021875000000e+01 4.769841540189e-09-2.958457078287e+00
    1.078471541405e-06 9.210591088049e-03 6.651505827904e-06 5.153599208832e+03
    5.760000000000e+05-1.862645149231e-07 8.088042631097e-01 2.235174179077e-08
    9.604235973607e-01 2.531562500000e+02 2.043184535408e-03-7.962117368433e-09
   -1.457203555520e-10 1.000000000000e+00 2.050000000000e+03 0.000000000000e+00
    2.400000000000e+00 0.000000000000e+00-1.350417733192e-08 2.700000000000e+01
    5.688000000000e+05 4.000000000000e+00
26 19  4 27 16  0  0.0 1.869150437415e-04 9.777068044059e-12 0.000000000000e+00
    3.600000000000e+01 2.868750000000e+01 4.818772149774e-09 1.979967336490e+00
    1.646578311920e-06 3.737749648280e-03 7.778406143188e-06 5.153595243454e+03
    5.760000000000e+05-2.607703208923e-08 1.802711601991e+00 1.192092895508e-07
    9.516539798653e-01 2.270000000000e+02 1.656899816985e-01-8.162125699583e-09
   -2.492960984689e-10 1.000000000000e+00 2.050000000000e+03 0.000000000000e+00
    2.400000000000e+00 0.000000000000e+00 7.450580596924e-09 3.600000000000e+01
    5.688000000000e+05 4.000000000000e+00
20 19  4 27 16  0  0.0 5.243024788797e-04 3.410605131648e-13 0.000000000000e+00
    2.200000000000e+01-5.568750000000e+01 5.046638784191e-09-2.336423917457e+00
   -2.687796950340e-06 4.366008331999e-03 7.972121238708e-06 5.153686658859e+03
    5.760000000000e+05-3.166496753693e-08-1.434090080385e+00 7.264316082001e-08
    9.301521825605e-01 2.086562500000e+02 2.347749091916e+00-8.261415549690e-09
    8.143196339671e-11 1.000000000000e+00 2.050000000000e+03 0.000000000000e+00
    2.400000000000e+00 0.000000000000e+00-8.847564458847e-09 2.200000000000e+01
    5.688000000000e+05 4.000000000000e+00
27 19  4 27 16  0  0.0-1.182626001537e-04-8.981260180008e-12 0.000000000000e+00
    8.700000000000e+01 3.137500000000e+01 4.183745698373e-09 1.869212649695e-01
    1.700595021248e-06 7.056405302137e-03 5.524605512619e-06 5.153640590668e+03
    5.760000000000e+05 7.636845111847e-08 2.872218474445e+00 1.210719347000e-07
    9.787592142328e-01 2.778750000000e+02 4.735943948104e-01-8.077836474313e-09
   -2.392956819114e-11 1.000000000000e+00 2.050000000000e+03 0.000000000000e+00
    2.400000000000e+00 0.000000000000e+00 1.396983861923e-09 8.700000000000e+01
    5.688000000000e+05 4.000000000000e+00
24 19  4 27 16  0  0.0-6.531458348036e-05-4.547473508865e-13 0.000000000000e+00
    1.180000000000e+02 2.281250000000e+01 5.319507293116e-09-1.701493316815e+00
    1.072883605957e-06 8.279238594696e-03 5.872920155525e-06 5.153715665817e+03
    5.760000000000e+05 1.210719347000e-07 7.294280529091e-01-7.823109626770e-08
    9.390689359677e-01 2.533125000000e+02 6.065747088314e-01-8.357848137923e-09
    2.750114553310e-11 1.000000000000e+00 2.050000000000e+03 0.000000000000e+00
    4.850000000000e+00 0.000000000000e+00 2.793967723846e-09 1.180000000000e+02
    5.688000000000e+05 4.000000000000e+00
